{"type": "FeatureCollection", "features": [ {"type": "Feature", "properties": {"norad_id": 66573, "name": "STARLINK-35650", "group": "last-30-days", "lat": -42.714738807441144, "lon": -24.67354613050029, "alt_km": 416.68546896205044, "timestamp": "2025-12-20T22:39:09.405475+00:00", "meta": {"OBJECT_NAME": "STARLINK-35650", "OBJECT_ID": "2025-268S", "EPOCH": "2025-12-19T14:36:55.904832", "MEAN_MOTION": 15.50859773, "ECCENTRICITY": 0.0003722, "INCLINATION": 43.0011, "RA_OF_ASC_NODE": 80.9506, "ARG_OF_PERICENTER": 102.75, "MEAN_ANOMALY": 257.3776, "EPHEMERIS_TYPE": 0, "CLASSIFICATION_TYPE": "U", "NORAD_CAT_ID": 66573, "ELEMENT_SET_NO": 999, "REV_AT_EPOCH": 569, "BSTAR": 0.0063018, "MEAN_MOTION_DOT": 0.00392409, "MEAN_MOTION_DDOT": 0}, "tle": {"line1": "1 66573U 25268S   25353.60898038  .00392409  00000+0  63018-2 0  9996", "line2": "2 66573  43.0011  80.9506 0003722 102.7500 257.3776 15.50859773  5692"}}, "geometry": {"type": "Point", "coordinates": [-24.67354613050029, -42.714738807441144]}}, {"type": "Feature", "properties": {"norad_id": 66574, "name": "STARLINK-35812", "group": "last-30-days", "lat": -42.09265092200578, "lon": -2.683188155712037, "alt_km": 400.2652514059273, "timestamp": "2025-12-20T22:39:09.405484+00:00", "meta": {"OBJECT_NAME": "STARLINK-35812", "OBJECT_ID": "2025-268T", "EPOCH": "2025-12-20T14:00:03.000384", "MEAN_MOTION": 15.56236872, "ECCENTRICITY": 0.00018648, "INCLINATION": 43.0016, "RA_OF_ASC_NODE": 75.2223, "ARG_OF_PERICENTER": 277.1589, "MEAN_ANOMALY": 141.2148, "EPHEMERIS_TYPE": 0, "CLASSIFICATION_TYPE": "U", "NORAD_CAT_ID": 66574, "ELEMENT_SET_NO": 999, "REV_AT_EPOCH": 592, "BSTAR": 0.0024343304, "MEAN_MOTION_DOT": 0.00179098, "MEAN_MOTION_DDOT": 0}, "tle": {"line1": "1 66574U 25268T   25354.58336806  .00179098  00000+0  24343-2 0  9990", "line2": "2 66574  43.0016  75.2223 0001864 277.1589 141.2148 15.56236872  5925"}}, "geometry": {"type": "Point", "coordinates": [-2.683188155712037, -42.09265092200578]}}, {"type": "Feature", "properties": {"norad_id": 66575, "name": "STARLINK-35810", "group": "last-30-days", "lat": -41.74306883010707, "lon": -0.1554682934234935, "alt_km": 400.306122809262, "timestamp": "2025-12-20T22:39:09.405493+00:00", "meta": {"OBJECT_NAME": "STARLINK-35810", "OBJECT_ID": "2025-268U", "EPOCH": "2025-12-20T14:00:03.000384", "MEAN_MOTION": 15.56238254, "ECCENTRICITY": 0.00017969, "INCLINATION": 43.0009, "RA_OF_ASC_NODE": 75.2177, "ARG_OF_PERICENTER": 271.9814, "MEAN_ANOMALY": 148.3077, "EPHEMERIS_TYPE": 0, "CLASSIFICATION_TYPE": "U", "NORAD_CAT_ID": 66575, "ELEMENT_SET_NO": 999, "REV_AT_EPOCH": 592, "BSTAR": 0.0024242214, "MEAN_MOTION_DOT": 0.00178344, "MEAN_MOTION_DDOT": 0}, "tle": {"line1": "1 66575U 25268U   25354.58336806  .00178344  00000+0  24242-2 0  9992", "line2": "2 66575  43.0009  75.2177 0001796 271.9814 148.3077 15.56238254  5928"}}, "geometry": {"type": "Point", "coordinates": [-0.1554682934234935, -41.74306883010707]}}, {"type": "Feature", "properties": {"norad_id": 66576, "name": "STARLINK-35814", "group": "last-30-days", "lat": -41.337085018743544, "lon": 2.352578703035479, "alt_km": 400.2565160797858, "timestamp": "2025-12-20T22:39:09.405502+00:00", "meta": {"OBJECT_NAME": "STARLINK-35814", "OBJECT_ID": "2025-268V", "EPOCH": "2025-12-20T14:00:03.000384", "MEAN_MOTION": 15.56243546, "ECCENTRICITY": 0.00018, "INCLINATION": 43.0008, "RA_OF_ASC_NODE": 75.2112, "ARG_OF_PERICENTER": 277.3286, "MEAN_ANOMALY": 144.8816, "EPHEMERIS_TYPE": 0, "CLASSIFICATION_TYPE": "U", "NORAD_CAT_ID": 66576, "ELEMENT_SET_NO": 999, "REV_AT_EPOCH": 592, "BSTAR": 0.0024694418, "MEAN_MOTION_DOT": 0.00181793, "MEAN_MOTION_DDOT": 0}, "tle": {"line1": "1 66576U 25268V   25354.58336806  .00181793  00000+0  24694-2 0  9996", "line2": "2 66576  43.0008  75.2112 0001800 277.3286 144.8816 15.56243546  5928"}}, "geometry": {"type": "Point", "coordinates": [2.352578703035479, -41.337085018743544]}}, {"type": "Feature", "properties": {"norad_id": 66577, "name": "STARLINK-35815", "group": "last-30-days", "lat": -42.97497949293279, "lon": -15.555468933228354, "alt_km": 429.72963349547535, "timestamp": "2025-12-20T22:39:09.405512+00:00", "meta": {"OBJECT_NAME": "STARLINK-35815", "OBJECT_ID": "2025-268W", "EPOCH": "2025-12-20T12:13:06.893184", "MEAN_MOTION": 15.51230363, "ECCENTRICITY": 0.00237765, "INCLINATION": 43.0031, "RA_OF_ASC_NODE": 75.6638, "ARG_OF_PERICENTER": 54.8873, "MEAN_ANOMALY": 305.4212, "EPHEMERIS_TYPE": 0, "CLASSIFICATION_TYPE": "U", "NORAD_CAT_ID": 66577, "ELEMENT_SET_NO": 999, "REV_AT_EPOCH": 583, "BSTAR": 0.0015435904, "MEAN_MOTION_DOT": 0.00094527, "MEAN_MOTION_DDOT": 0}, "tle": {"line1": "1 66577U 25268W   25354.50910756  .00094527  00000+0  15436-2 0  9993", "line2": "2 66577  43.0031  75.6638 0023776  54.8873 305.4212 15.51230363  5831"}}, "geometry": {"type": "Point", "coordinates": [-15.555468933228354, -42.97497949293279]}}, {"type": "Feature", "properties": {"norad_id": 66578, "name": "STARLINK-35743", "group": "last-30-days", "lat": -42.94889831471121, "lon": -14.325056220973561, "alt_km": 416.3036385411515, "timestamp": "2025-12-20T22:39:09.405523+00:00", "meta": {"OBJECT_NAME": "STARLINK-35743", "OBJECT_ID": "2025-268X", "EPOCH": "2025-12-19T13:01:43.293216", "MEAN_MOTION": 15.50763067, "ECCENTRICITY": 6.51e-05, "INCLINATION": 42.9979, "RA_OF_ASC_NODE": 81.316, "ARG_OF_PERICENTER": 284.5171, "MEAN_ANOMALY": 75.5617, "EPHEMERIS_TYPE": 0, "CLASSIFICATION_TYPE": "U", "NORAD_CAT_ID": 66578, "ELEMENT_SET_NO": 999, "REV_AT_EPOCH": 568, "BSTAR": 0.0024134, "MEAN_MOTION_DOT": 0.0014484, "MEAN_MOTION_DDOT": 0}, "tle": {"line1": "1 66578U 25268X   25353.54286219  .00144840  00000+0  24134-2 0  9996", "line2": "2 66578  42.9979  81.3160 0000651 284.5171  75.5617 15.50763067  5683"}}, "geometry": {"type": "Point", "coordinates": [-14.325056220973561, -42.94889831471121]}}, {"type": "Feature", "properties": {"norad_id": 66579, "name": "STARLINK-35868", "group": "last-30-days", "lat": -39.8113790195475, "lon": 9.633157993481909, "alt_km": 400.1619970905358, "timestamp": "2025-12-20T22:39:09.405532+00:00", "meta": {"OBJECT_NAME": "STARLINK-35868", "OBJECT_ID": "2025-268Y", "EPOCH": "2025-12-20T14:00:03.000384", "MEAN_MOTION": 15.56246116, "ECCENTRICITY": 0.00018411, "INCLINATION": 43.0007, "RA_OF_ASC_NODE": 75.1978, "ARG_OF_PERICENTER": 280.6526, "MEAN_ANOMALY": 147.3068, "EPHEMERIS_TYPE": 0, "CLASSIFICATION_TYPE": "U", "NORAD_CAT_ID": 66579, "ELEMENT_SET_NO": 999, "REV_AT_EPOCH": 592, "BSTAR": 0.0024621291, "MEAN_MOTION_DOT": 0.00181259, "MEAN_MOTION_DDOT": 0}, "tle": {"line1": "1 66579U 25268Y   25354.58336806  .00181259  00000+0  24621-2 0  9996", "line2": "2 66579  43.0007  75.1978 0001841 280.6526 147.3068 15.56246116  5921"}}, "geometry": {"type": "Point", "coordinates": [9.633157993481909, -39.8113790195475]}}, {"type": "Feature", "properties": {"norad_id": 66580, "name": "STARLINK-35872", "group": "last-30-days", "lat": -42.64298182347027, "lon": -8.129330087438401, "alt_km": 416.64026064020254, "timestamp": "2025-12-20T22:39:09.405541+00:00", "meta": {"OBJECT_NAME": "STARLINK-35872", "OBJECT_ID": "2025-268Z", "EPOCH": "2025-12-19T14:33:26.953344", "MEAN_MOTION": 15.50873267, "ECCENTRICITY": 0.0002511, "INCLINATION": 42.9993, "RA_OF_ASC_NODE": 80.9317, "ARG_OF_PERICENTER": 162.1716, "MEAN_ANOMALY": 197.9233, "EPHEMERIS_TYPE": 0, "CLASSIFICATION_TYPE": "U", "NORAD_CAT_ID": 66580, "ELEMENT_SET_NO": 999, "REV_AT_EPOCH": 569, "BSTAR": 0.0027444, "MEAN_MOTION_DOT": 0.00165853, "MEAN_MOTION_DDOT": 0}, "tle": {"line1": "1 66580U 25268Z   25353.60656196  .00165853  00000+0  27444-2 0  9995", "line2": "2 66580  42.9993  80.9317 0002511 162.1716 197.9233 15.50873267  5692"}}, "geometry": {"type": "Point", "coordinates": [-8.129330087438401, -42.64298182347027]}}, {"type": "Feature", "properties": {"norad_id": 66581, "name": "STARLINK-35744", "group": "last-30-days", "lat": -42.41387969004008, "lon": -5.521767182792852, "alt_km": 423.6623535631743, "timestamp": "2025-12-20T22:39:09.405552+00:00", "meta": {"OBJECT_NAME": "STARLINK-35744", "OBJECT_ID": "2025-268AA", "EPOCH": "2025-12-20T12:11:08.741184", "MEAN_MOTION": 15.51171688, "ECCENTRICITY": 0.00194177, "INCLINATION": 43.0014, "RA_OF_ASC_NODE": 75.6513, "ARG_OF_PERICENTER": 38.7334, "MEAN_ANOMALY": 321.4915, "EPHEMERIS_TYPE": 0, "CLASSIFICATION_TYPE": "U", "NORAD_CAT_ID": 66581, "ELEMENT_SET_NO": 999, "REV_AT_EPOCH": 583, "BSTAR": 0.0011801122, "MEAN_MOTION_DOT": 0.00071548, "MEAN_MOTION_DDOT": 0}, "tle": {"line1": "1 66581U 25268AA  25354.50774006  .00071548  00000+0  11801-2 0  9994", "line2": "2 66581  43.0014  75.6513 0019417  38.7334 321.4915 15.51171688  5831"}}, "geometry": {"type": "Point", "coordinates": [-5.521767182792852, -42.41387969004008]}}, {"type": "Feature", "properties": {"norad_id": 66582, "name": "STARLINK-35746", "group": "last-30-days", "lat": -42.1188460021053, "lon": -2.902426675537854, "alt_km": 423.477448594017, "timestamp": "2025-12-20T22:39:09.405562+00:00", "meta": {"OBJECT_NAME": "STARLINK-35746", "OBJECT_ID": "2025-268AB", "EPOCH": "2025-12-20T12:10:39.225216", "MEAN_MOTION": 15.51195543, "ECCENTRICITY": 0.00196853, "INCLINATION": 43.0006, "RA_OF_ASC_NODE": 75.6486, "ARG_OF_PERICENTER": 40.0324, "MEAN_ANOMALY": 320.1984, "EPHEMERIS_TYPE": 0, "CLASSIFICATION_TYPE": "U", "NORAD_CAT_ID": 66582, "ELEMENT_SET_NO": 999, "REV_AT_EPOCH": 583, "BSTAR": 0.0016006229, "MEAN_MOTION_DOT": 0.00097588, "MEAN_MOTION_DDOT": 0}, "tle": {"line1": "1 66582U 25268AB  25354.50739844  .00097588  00000+0  16006-2 0  9990", "line2": "2 66582  43.0006  75.6486 0019685  40.0324 320.1984 15.51195543  5832"}}, "geometry": {"type": "Point", "coordinates": [-2.902426675537854, -42.1188460021053]}}]}